0 MOLNIYA 3-47
1 23642U 95042A   13279.20788281  .00000164  00000-0 -37238-2 0   971
2 23642 061.8642 157.7812 7291037 266.7977 015.7466 02.00664859133084
0 MOLNIYA 3-47
1 23642U 95042A   13282.69617037  .00000145  00000-0 -29875-2 0   986
2 23642 061.8610 157.2655 7291685 266.8389 015.7195 02.00664760133154
0 MOLNIYA 3-47
1 23642U 95042A   13287.67946584  .00000064  00000-0 -45418-2 0   993
2 23642 061.8603 156.5330 7292778 266.8952 015.6836 02.00663670133259
0 MOLNIYA 3-47
1 23642U 95042A   13292.66278920  .00000062  00000-0 -37541-2 0  1009
2 23642 061.8601 155.7983 7293883 266.9546 015.6538 02.00662749133356
0 MOLNIYA 3-47
1 23642U 95042A   13293.16111686  .00000078  00000-0 -27359-2 0  1014
2 23642 061.8562 155.7320 7293789 266.9486 015.6481 02.00662861133368
